[{"OBJECT_NAME":"ONEWEB-0230","OBJECT_ID":"2021-045C","EPOCH":"2025-08-29T06:09:40.754880","MEAN_MOTION":13.15547984,"ECCENTRICITY":0.0002023,"INCLINATION":87.905,"RA_OF_ASC_NODE":317.4612,"ARG_OF_PERICENTER":96.3804,"MEAN_ANOMALY":263.7557,"EPHEMERIS_TYPE":0,"CLASSIFICATION_TYPE":"U","NORAD_CAT_ID":48769,"ELEMENT_SET_NO":999,"REV_AT_EPOCH":20628,"BSTAR":-0.00019236864,"MEAN_MOTION_DOT":-6.0e-7,"MEAN_MOTION_DDOT":0},{"OBJECT_NAME":"ONEWEB-0237","OBJECT_ID":"2021-045D","EPOCH":"2025-08-29T05:53:41.784864","MEAN_MOTION":13.15547919,"ECCENTRICITY":0.00017458,"INCLINATION":87.9072,"RA_OF_ASC_NODE":317.4562,"ARG_OF_PERICENTER":88.8868,"MEAN_ANOMALY":271.2463,"EPHEMERIS_TYPE":0,"CLASSIFICATION_TYPE":"U","NORAD_CAT_ID":48770,"ELEMENT_SET_NO":999,"REV_AT_EPOCH":20600,"BSTAR":6.3365765e-5,"MEAN_MOTION_DOT":3.7e-7,"MEAN_MOTION_DDOT":0},{"OBJECT_NAME":"ONEWEB-0235","OBJECT_ID":"2021-045E","EPOCH":"2025-08-29T05:17:11.554368","MEAN_MOTION":13.15547825,"ECCENTRICITY":0.00016579,"INCLINATION":87.9061,"RA_OF_ASC_NODE":317.4353,"ARG_OF_PERICENTER":81.0964,"MEAN_ANOMALY":279.0353,"EPHEMERIS_TYPE":0,"CLASSIFICATION_TYPE":"U","NORAD_CAT_ID":48771,"ELEMENT_SET_NO":999,"REV_AT_EPOCH":20599,"BSTAR":0.00020280239,"MEAN_MOTION_DOT":8.9e-7,"MEAN_MOTION_DDOT":0},{"OBJECT_NAME":"ONEWEB-0242","OBJECT_ID":"2021-045F","EPOCH":"2025-08-29T06:57:35.688960","MEAN_MOTION":13.15548432,"ECCENTRICITY":0.00018888,"INCLINATION":87.9065,"RA_OF_ASC_NODE":317.4063,"ARG_OF_PERICENTER":91.7022,"MEAN_ANOMALY":268.4325,"EPHEMERIS_TYPE":0,"CLASSIFICATION_TYPE":"U","NORAD_CAT_ID":48772,"ELEMENT_SET_NO":999,"REV_AT_EPOCH":20604,"BSTAR":0.00039606564,"MEAN_MOTION_DOT":1.62e-6,"MEAN_MOTION_DDOT":0},{"OBJECT_NAME":"ONEWEB-0241","OBJECT_ID":"2021-045G","EPOCH":"2025-08-29T06:39:20.091168","MEAN_MOTION":13.15547716,"ECCENTRICITY":0.00014509,"INCLINATION":87.905,"RA_OF_ASC_NODE":317.4586,"ARG_OF_PERICENTER":97.5927,"MEAN_ANOMALY":262.5368,"EPHEMERIS_TYPE":0,"CLASSIFICATION_TYPE":"U","NORAD_CAT_ID":48773,"ELEMENT_SET_NO":999,"REV_AT_EPOCH":20595,"BSTAR":0.00070977129,"MEAN_MOTION_DOT":2.8e-6,"MEAN_MOTION_DDOT":0},{"OBJECT_NAME":"ONEWEB-0243","OBJECT_ID":"2021-045H","EPOCH":"2025-08-29T05:35:27.131424","MEAN_MOTION":13.15548047,"ECCENTRICITY":0.00017642,"INCLINATION":87.9069,"RA_OF_ASC_NODE":317.4671,"ARG_OF_PERICENTER":84.1313,"MEAN_ANOMALY":276.0019,"EPHEMERIS_TYPE":0,"CLASSIFICATION_TYPE":"U","NORAD_CAT_ID":48774,"ELEMENT_SET_NO":999,"REV_AT_EPOCH":20597,"BSTAR":1.8875279e-5,"MEAN_MOTION_DOT":2.0e-7,"MEAN_MOTION_DDOT":0},{"OBJECT_NAME":"ONEWEB-0222","OBJECT_ID":"2021-045J","EPOCH":"2025-08-29T07:00:59.858208","MEAN_MOTION":13.15547154,"ECCENTRICITY":0.00017045,"INCLINATION":87.9062,"RA_OF_ASC_NODE":317.4086,"ARG_OF_PERICENTER":96.7145,"MEAN_ANOMALY":263.4179,"EPHEMERIS_TYPE":0,"CLASSIFICATION_TYPE":"U","NORAD_CAT_ID":48775,"ELEMENT_SET_NO":999,"REV_AT_EPOCH":20602,"BSTAR":0.00047371883,"MEAN_MOTION_DOT":1.91e-6,"MEAN_MOTION_DDOT":0},{"OBJECT_NAME":"ONEWEB-0244","OBJECT_ID":"2021-045K","EPOCH":"2025-08-29T05:49:08.337504","MEAN_MOTION":13.15547947,"ECCENTRICITY":0.00019646,"INCLINATION":87.9069,"RA_OF_ASC_NODE":317.4001,"ARG_OF_PERICENTER":92.5158,"MEAN_ANOMALY":267.6197,"EPHEMERIS_TYPE":0,"CLASSIFICATION_TYPE":"U","NORAD_CAT_ID":48776,"ELEMENT_SET_NO":999,"REV_AT_EPOCH":20658,"BSTAR":-0.00016274062,"MEAN_MOTION_DOT":-4.8e-7,"MEAN_MOTION_DDOT":0},{"OBJECT_NAME":"ONEWEB-0247","OBJECT_ID":"2021-045L","EPOCH":"2025-08-29T05:44:35.221056","MEAN_MOTION":13.15549906,"ECCENTRICITY":0.00016377,"INCLINATION":87.9056,"RA_OF_ASC_NODE":317.4714,"ARG_OF_PERICENTER":66.9381,"MEAN_ANOMALY":293.1922,"EPHEMERIS_TYPE":0,"CLASSIFICATION_TYPE":"U","NORAD_CAT_ID":48777,"ELEMENT_SET_NO":999,"REV_AT_EPOCH":20602,"BSTAR":-0.00021582646,"MEAN_MOTION_DOT":-6.8e-7,"MEAN_MOTION_DDOT":0},{"OBJECT_NAME":"ONEWEB-0245","OBJECT_ID":"2021-045M","EPOCH":"2025-08-29T05:37:44.011488","MEAN_MOTION":13.15548722,"ECCENTRICITY":0.00017299,"INCLINATION":87.906,"RA_OF_ASC_NODE":317.4357,"ARG_OF_PERICENTER":99.297,"MEAN_ANOMALY":260.8356,"EPHEMERIS_TYPE":0,"CLASSIFICATION_TYPE":"U","NORAD_CAT_ID":48778,"ELEMENT_SET_NO":999,"REV_AT_EPOCH":20599,"BSTAR":-4.488446e-5,"MEAN_MOTION_DOT":-4.0e-8,"MEAN_MOTION_DDOT":0},{"OBJECT_NAME":"ONEWEB-0229","OBJECT_ID":"2021-045N","EPOCH":"2025-08-29T05:30:53.031744","MEAN_MOTION":13.15549549,"ECCENTRICITY":0.00019059,"INCLINATION":87.9056,"RA_OF_ASC_NODE":317.4363,"ARG_OF_PERICENTER":93.1644,"MEAN_ANOMALY":266.9704,"EPHEMERIS_TYPE":0,"CLASSIFICATION_TYPE":"U","NORAD_CAT_ID":48779,"ELEMENT_SET_NO":999,"REV_AT_EPOCH":20602,"BSTAR":0.00014443647,"MEAN_MOTION_DOT":6.7e-7,"MEAN_MOTION_DDOT":0},{"OBJECT_NAME":"ONEWEB-0228","OBJECT_ID":"2021-045P","EPOCH":"2025-08-29T06:18:59.958144","MEAN_MOTION":13.15549443,"ECCENTRICITY":0.0001805,"INCLINATION":87.9063,"RA_OF_ASC_NODE":317.4045,"ARG_OF_PERICENTER":94.7077,"MEAN_ANOMALY":265.426,"EPHEMERIS_TYPE":0,"CLASSIFICATION_TYPE":"U","NORAD_CAT_ID":48780,"ELEMENT_SET_NO":999,"REV_AT_EPOCH":20594,"BSTAR":0.0002808711,"MEAN_MOTION_DOT":1.19e-6,"MEAN_MOTION_DDOT":0},{"OBJECT_NAME":"ONEWEB-0232","OBJECT_ID":"2021-045Q","EPOCH":"2025-08-29T05:42:17.706816","MEAN_MOTION":13.15548913,"ECCENTRICITY":0.00019306,"INCLINATION":87.9057,"RA_OF_ASC_NODE":317.4027,"ARG_OF_PERICENTER":96.8272,"MEAN_ANOMALY":263.3078,"EPHEMERIS_TYPE":0,"CLASSIFICATION_TYPE":"U","NORAD_CAT_ID":48781,"ELEMENT_SET_NO":999,"REV_AT_EPOCH":20626,"BSTAR":-0.00013464995,"MEAN_MOTION_DOT":-3.8e-7,"MEAN_MOTION_DDOT":0},{"OBJECT_NAME":"ONEWEB-0231","OBJECT_ID":"2021-045R","EPOCH":"2025-08-29T06:59:51.877824","MEAN_MOTION":13.15548968,"ECCENTRICITY":0.00017481,"INCLINATION":87.9052,"RA_OF_ASC_NODE":317.4447,"ARG_OF_PERICENTER":91.1993,"MEAN_ANOMALY":268.9338,"EPHEMERIS_TYPE":0,"CLASSIFICATION_TYPE":"U","NORAD_CAT_ID":48782,"ELEMENT_SET_NO":999,"REV_AT_EPOCH":20596,"BSTAR":0.00039745876,"MEAN_MOTION_DOT":1.62e-6,"MEAN_MOTION_DDOT":0},{"OBJECT_NAME":"ONEWEB-0234","OBJECT_ID":"2021-045S","EPOCH":"2025-08-29T06:04:56.345088","MEAN_MOTION":13.15547259,"ECCENTRICITY":0.00019152,"INCLINATION":87.906,"RA_OF_ASC_NODE":317.4201,"ARG_OF_PERICENTER":125.7977,"MEAN_ANOMALY":234.3332,"EPHEMERIS_TYPE":0,"CLASSIFICATION_TYPE":"U","NORAD_CAT_ID":48783,"ELEMENT_SET_NO":999,"REV_AT_EPOCH":20609,"BSTAR":2.922528e-5,"MEAN_MOTION_DOT":2.4e-7,"MEAN_MOTION_DDOT":0},{"OBJECT_NAME":"ONEWEB-0238","OBJECT_ID":"2021-045T","EPOCH":"2025-08-29T06:05:19.023360","MEAN_MOTION":13.15548323,"ECCENTRICITY":0.00018873,"INCLINATION":87.9056,"RA_OF_ASC_NODE":317.4165,"ARG_OF_PERICENTER":109.4936,"MEAN_ANOMALY":250.6398,"EPHEMERIS_TYPE":0,"CLASSIFICATION_TYPE":"U","NORAD_CAT_ID":48784,"ELEMENT_SET_NO":999,"REV_AT_EPOCH":20599,"BSTAR":-0.00013170918,"MEAN_MOTION_DOT":-3.7e-7,"MEAN_MOTION_DDOT":0}]
