ONEWEB-0230             
1 48769U 21045C   25241.25672170 -.00000060  00000+0 -19237-3 0  9992
2 48769  87.9050 317.4612 0002023  96.3804 263.7557 13.15547984206286
ONEWEB-0237             
1 48770U 21045D   25241.24562251  .00000037  00000+0  63366-4 0  9996
2 48770  87.9072 317.4562 0001745  88.8868 271.2463 13.15547919206000
ONEWEB-0235             
1 48771U 21045E   25241.22027262  .00000089  00000+0  20280-3 0  9997
2 48771  87.9061 317.4353 0001657  81.0964 279.0353 13.15547825205998
ONEWEB-0242             
1 48772U 21045F   25241.28999640  .00000162  00000+0  39607-3 0  9997
2 48772  87.9065 317.4063 0001888  91.7022 268.4325 13.15548432206043
ONEWEB-0241             
1 48773U 21045G   25241.27731587  .00000280  00000+0  70977-3 0  9997
2 48773  87.9050 317.4586 0001450  97.5927 262.5368 13.15547716205956
ONEWEB-0243             
1 48774U 21045H   25241.23295291  .00000020  00000+0  18875-4 0  9993
2 48774  87.9069 317.4671 0001764  84.1313 276.0019 13.15548047205974
ONEWEB-0222             
1 48775U 21045J   25241.29235947  .00000191  00000+0  47372-3 0  9994
2 48775  87.9062 317.4086 0001704  96.7145 263.4179 13.15547154206026
ONEWEB-0244             
1 48776U 21045K   25241.24245761 -.00000048  00000+0 -16274-3 0  9995
2 48776  87.9069 317.4001 0001964  92.5158 267.6197 13.15547947206584
ONEWEB-0247             
1 48777U 21045L   25241.23929654 -.00000068  00000+0 -21583-3 0  9996
2 48777  87.9056 317.4714 0001637  66.9381 293.1922 13.15549906206028
ONEWEB-0245             
1 48778U 21045M   25241.23453717 -.00000004  00000+0 -44884-4 0  9999
2 48778  87.9060 317.4357 0001729  99.2970 260.8356 13.15548722205994
ONEWEB-0229             
1 48779U 21045N   25241.22978046  .00000067  00000+0  14444-3 0  9991
2 48779  87.9056 317.4363 0001905  93.1644 266.9704 13.15549549206021
ONEWEB-0228             
1 48780U 21045P   25241.26319396  .00000119  00000+0  28087-3 0  9990
2 48780  87.9063 317.4045 0001805  94.7077 265.4260 13.15549443205948
ONEWEB-0232             
1 48781U 21045Q   25241.23770494 -.00000038  00000+0 -13465-3 0  9994
2 48781  87.9057 317.4027 0001930  96.8272 263.3078 13.15548913206262
ONEWEB-0231             
1 48782U 21045R   25241.29157266  .00000162  00000+0  39746-3 0  9993
2 48782  87.9052 317.4447 0001748  91.1993 268.9338 13.15548968205965
ONEWEB-0234             
1 48783U 21045S   25241.25342992  .00000024  00000+0  29225-4 0  9991
2 48783  87.9060 317.4201 0001915 125.7977 234.3332 13.15547259206093
ONEWEB-0238             
1 48784U 21045T   25241.25369240 -.00000037  00000+0 -13171-3 0  9995
2 48784  87.9056 317.4165 0001887 109.4936 250.6398 13.15548323205994
